[
   {
      "name": "STARLINK-1323",
      "line1": "1 45553U 20025Y   21092.86486869  .00000970  00000-0  84052-4 0  9999",
      "line2": "2 45553  53.0588 255.3095 0001952 100.1883 259.9326 15.06393100 52506",
      "drg": 8.4052,
      "inc": 53.0588,
      "ran": 255.3095,
      "ecc": 0.0001952,
      "aop": 100.1883,
      "man": 259.9326,
      "mmo": 15.063931,
      "sma": 6925.36971
   },
   {
      "name": "STARLINK-1325",
      "line1": "1 45554U 20025Z   21092.85748852 -.00000999  00000-0 -48162-4 0  9997",
      "line2": "2 45554  53.0590 255.3393 0002148  99.2677 260.8555 15.06392095 53797",
      "drg": -4.8162,
      "inc": 53.059,
      "ran": 255.3393,
      "ecc": 0.0002148,
      "aop": 99.2677,
      "man": 260.8555,
      "mmo": 15.06392095,
      "sma": 6925.37279
   },
   {
      "name": "STARLINK-1327",
      "line1": "1 45555U 20025AA  21092.82063029  .00000894  00000-0  78910-4 0  9997",
      "line2": "2 45555  53.0569 255.4965 0001791  98.7180 261.4012 15.06396971 53787",
      "drg": 7.891,
      "inc": 53.0569,
      "ran": 255.4965,
      "ecc": 0.0001791,
      "aop": 98.718,
      "man": 261.4012,
      "mmo": 15.06396971,
      "sma": 6925.35784
   },
   {
      "name": "STARLINK-1334",
      "line1": "1 45556U 20025AB  21092.86116536  .00000828  00000-0  74483-4 0  9992",
      "line2": "2 45556  53.0583 255.3242 0002110  94.5026 265.6204 15.06405007 53791",
      "drg": 7.4483,
      "inc": 53.0583,
      "ran": 255.3242,
      "ecc": 0.000211,
      "aop": 94.5026,
      "man": 265.6204,
      "mmo": 15.06405007,
      "sma": 6925.33321
   },
   {
      "name": "STARLINK-1336",
      "line1": "1 45557U 20025AC  21092.86855804  .00000785  00000-0  71602-4 0  9993",
      "line2": "2 45557  53.0591 255.2871 0002350  95.0483 265.0774 15.06400877 53793",
      "drg": 7.1602,
      "inc": 53.0591,
      "ran": 255.2871,
      "ecc": 0.000235,
      "aop": 95.0483,
      "man": 265.0774,
      "mmo": 15.06400877,
      "sma": 6925.34587
   },
   {
      "name": "STARLINK-1342",
      "line1": "1 45558U 20025AD  21092.83537590 -.00001003  00000-0 -48403-4 0  9999",
      "line2": "2 45558  53.0582 255.4371 0002561  99.6854 260.4424 15.06394913 53780",
      "drg": -4.8403,
      "inc": 53.0582,
      "ran": 255.4371,
      "ecc": 0.0002561,
      "aop": 99.6854,
      "man": 260.4424,
      "mmo": 15.06394913,
      "sma": 6925.36415
   },
   {
      "name": "STARLINK-1344",
      "line1": "1 45559U 20025AE  21092.80588461  .00000718  00000-0  67109-4 0  9994",
      "line2": "2 45559  53.0576 255.5646 0001866  96.0165 264.1037 15.06390740 53788",
      "drg": 6.7109,
      "inc": 53.0576,
      "ran": 255.5646,
      "ecc": 0.0001866,
      "aop": 96.0165,
      "man": 264.1037,
      "mmo": 15.0639074,
      "sma": 6925.37694
   },
   {
      "name": "STARLINK-1346",
      "line1": "1 45560U 20025AF  21092.79206833 -.00001066  00000-0 -52694-4 0  9996",
      "line2": "2 45560  53.0563 245.6318 0002124 102.9033 257.2194 15.06392966 53926",
      "drg": -5.2694,
      "inc": 53.0563,
      "ran": 245.6318,
      "ecc": 0.0002124,
      "aop": 102.9033,
      "man": 257.2194,
      "mmo": 15.06392966,
      "sma": 6925.37012
   },
   {
      "name": "STARLINK-1348",
      "line1": "1 45561U 20025AG  21092.52436904 -.00003445  00000-0 -21263-3 0  9992",
      "line2": "2 45561  53.0511 171.7651 0001104  78.0961 282.0152 15.06382224 54342",
      "drg": -21.263,
      "inc": 53.0511,
      "ran": 171.7651,
      "ecc": 0.0001104,
      "aop": 78.0961,
      "man": 282.0152,
      "mmo": 15.06382224,
      "sma": 6925.40304
   },
   {
      "name": "STARLINK-1354",
      "line1": "1 45562U 20025AH  21092.81326109 -.00000155  00000-0  84873-5 0  9992",
      "line2": "2 45562  53.0575 255.5310 0002005  94.2445 265.8773 15.06397392 53781",
      "drg": 0.84873,
      "inc": 53.0575,
      "ran": 255.531,
      "ecc": 0.0002005,
      "aop": 94.2445,
      "man": 265.8773,
      "mmo": 15.06397392,
      "sma": 6925.35655
   },
   {
      "name": "STARLINK-1355",
      "line1": "1 45563U 20025AJ  21092.82800722  .00000873  00000-0  77521-4 0  9999",
      "line2": "2 45563  53.0565 255.4663 0001800 102.4038 257.7153 15.06388281 53782",
      "drg": 7.7521,
      "inc": 53.0565,
      "ran": 255.4663,
      "ecc": 0.00018,
      "aop": 102.4038,
      "man": 257.7153,
      "mmo": 15.06388281,
      "sma": 6925.38448
   },
   {
      "name": "STARLINK-1356",
      "line1": "1 45564U 20025AK  21092.82432023 -.00000934  00000-0 -43812-4 0  9991",
      "line2": "2 45564  53.0585 255.4809 0002014 100.2342 259.8874 15.06393477 53785",
      "drg": -4.3812,
      "inc": 53.0585,
      "ran": 255.4809,
      "ecc": 0.0002014,
      "aop": 100.2342,
      "man": 259.8874,
      "mmo": 15.06393477,
      "sma": 6925.36855
   },
   {
      "name": "STARLINK-1357",
      "line1": "1 45565U 20025AL  21092.88329286 -.00000582  00000-0 -20177-4 0  9992",
      "line2": "2 45565  53.0596 255.2225 0001928  96.6666 263.4542 15.06394284 53799",
      "drg": -2.0177,
      "inc": 53.0596,
      "ran": 255.2225,
      "ecc": 0.0001928,
      "aop": 96.6666,
      "man": 263.4542,
      "mmo": 15.06394284,
      "sma": 6925.36608
   },
   {
      "name": "STARLINK-1358",
      "line1": "1 45566U 20025AM  21092.83168511  .00000740  00000-0  68593-4 0  9998",
      "line2": "2 45566  53.0558 255.4493 0001821 107.6940 252.4248 15.06395830 53785",
      "drg": 6.8593,
      "inc": 53.0558,
      "ran": 255.4493,
      "ecc": 0.0001821,
      "aop": 107.694,
      "man": 252.4248,
      "mmo": 15.0639583,
      "sma": 6925.36134
   },
   {
      "name": "STARLINK-1361",
      "line1": "1 45567U 20025AN  21092.84274624 -.00000983  00000-0 -47064-4 0  9994",
      "line2": "2 45567  53.0573 255.3979 0002343 100.2476 259.8777 15.06396009 53792",
      "drg": -4.7064,
      "inc": 53.0573,
      "ran": 255.3979,
      "ecc": 0.0002343,
      "aop": 100.2476,
      "man": 259.8777,
      "mmo": 15.06396009,
      "sma": 6925.36079
   },
   {
      "name": "STARLINK-1363",
      "line1": "1 45568U 20025AP  21092.83443204 -.00000967  00000-0 -45987-4 0  9990",
      "line2": "2 45568  53.0600 255.4449 0002216 100.5827 259.5412 15.06394974 53780",
      "drg": -4.5987,
      "inc": 53.06,
      "ran": 255.4449,
      "ecc": 0.0002216,
      "aop": 100.5827,
      "man": 259.5412,
      "mmo": 15.06394974,
      "sma": 6925.36396
   },
   {
      "name": "STARLINK-1366",
      "line1": "1 45569U 20025AQ  21092.84643151 -.00001241  00000-0 -64426-4 0  9990",
      "line2": "2 45569  53.0579 255.3823 0002195  95.0523 265.0717 15.06394390 53780",
      "drg": -6.4426,
      "inc": 53.0579,
      "ran": 255.3823,
      "ecc": 0.0002195,
      "aop": 95.0523,
      "man": 265.0717,
      "mmo": 15.0639439,
      "sma": 6925.36575
   },
   {
      "name": "STARLINK-1376",
      "line1": "1 45570U 20025AR  21092.83905894 -.00000776  00000-0 -33199-4 0  9991",
      "line2": "2 45570  53.0576 255.4150 0002310 101.0166 259.1083 15.06393861 53785",
      "drg": -3.3199,
      "inc": 53.0576,
      "ran": 255.415,
      "ecc": 0.000231,
      "aop": 101.0166,
      "man": 259.1083,
      "mmo": 15.06393861,
      "sma": 6925.36737
   },
   {
      "name": "STARLINK-1261",
      "line1": "1 45571U 20025AS  21092.85473001 -.00000847  00000-0 -37979-4 0  9993",
      "line2": "2 45571  53.0587 245.3510 0002100 100.5955 259.5270 15.06393697 53940",
      "drg": -3.7979,
      "inc": 53.0587,
      "ran": 245.351,
      "ecc": 0.00021,
      "aop": 100.5955,
      "man": 259.527,
      "mmo": 15.06393697,
      "sma": 6925.36788
   },
   {
      "name": "STARLINK-1320",
      "line1": "1 45572U 20025AT  21092.84735633  .00001024  00000-0  87682-4 0  9997",
      "line2": "2 45572  53.0609 245.3782 0002555  98.7679 261.3600 15.06402519 53933",
      "drg": 8.7682,
      "inc": 53.0609,
      "ran": 245.3782,
      "ecc": 0.0002555,
      "aop": 98.7679,
      "man": 261.36,
      "mmo": 15.06402519,
      "sma": 6925.34084
   },
   {
      "name": "STARLINK-1321",
      "line1": "1 45573U 20025AU  21092.82523625 -.00001120  00000-0 -56248-4 0  9995",
      "line2": "2 45573  53.0559 245.4818 0002416 102.4609 257.6650 15.06394652 53628",
      "drg": -5.6248,
      "inc": 53.0559,
      "ran": 245.4818,
      "ecc": 0.0002416,
      "aop": 102.4609,
      "man": 257.665,
      "mmo": 15.06394652,
      "sma": 6925.36495
   },
   {
      "name": "STARLINK-1324",
      "line1": "1 45574U 20025AV  21092.85104272 -.00000929  00000-0 -43495-4 0  9998",
      "line2": "2 45574  53.0563 245.3654 0002116 102.9630 257.1595 15.06389193 53949",
      "drg": -4.3495,
      "inc": 53.0563,
      "ran": 245.3654,
      "ecc": 0.0002116,
      "aop": 102.963,
      "man": 257.1595,
      "mmo": 15.06389193,
      "sma": 6925.38168
   },
   {
      "name": "STARLINK-1326",
      "line1": "1 45575U 20025AW  21092.81816372  .00003526  00000-0  25272-3 0  9992",
      "line2": "2 45575  53.0014 244.7093 0001659 104.0236 256.0937 15.06811877 53944",
      "drg": 25.272,
      "inc": 53.0014,
      "ran": 244.7093,
      "ecc": 0.0001659,
      "aop": 104.0236,
      "man": 256.0937,
      "mmo": 15.06811877,
      "sma": 6924.0865
   },
   {
      "name": "STARLINK-1328",
      "line1": "1 45576U 20025AX  21092.74415326 -.00000495  00000-0 -14347-4 0  9995",
      "line2": "2 45576  53.0597 245.8477 0002192 102.5705 257.5529 15.06389715 53928",
      "drg": -1.4347,
      "inc": 53.0597,
      "ran": 245.8477,
      "ecc": 0.0002192,
      "aop": 102.5705,
      "man": 257.5529,
      "mmo": 15.06389715,
      "sma": 6925.38008
   }
]